OBJECT_NAME,OBJECT_ID,EPOCH,MEAN_MOTION,ECCENTRICITY,INCLINATION,RA_OF_ASC_NODE,ARG_OF_PERICENTER,MEAN_ANOMALY,EPHEMERIS_TYPE,CLASSIFICATION_TYPE,NORAD_CAT_ID,ELEMENT_SET_NO,REV_AT_EPOCH,BSTAR,MEAN_MOTION_DOT,MEAN_MOTION_DDOT
OCEANSAT-2,2009-051A,2026-07-01T05:03:32.546304,13.99659748,.0016354,98.2318,167.6626,194.2637,165.8070,0,U,35931,999,88129,-.12808E-3,-.225E-5,0
WORLDVIEW-2 (WV-2),2009-055A,2026-07-01T03:36:50.091264,14.37903507,.0004596,98.4763,255.4091,165.6094,194.5224,0,U,35946,999,87765,.6522E-4,.153E-5,0
SMOS,2009-059A,2026-07-01T02:07:36.528672,14.39780211,.0001313,98.4425,9.2199,87.7025,272.4313,0,U,36036,999,87545,.10457E-3,.284E-5,0
YAOGAN-7,2009-069A,2026-07-01T02:27:36.270432,14.78023940,.0024566,98.0054,67.8826,357.8391,2.2709,0,U,36110,999,89168,.84731E-4,.561E-5,0
TANDEM-X,2010-030A,2026-06-30T13:30:41.966208,15.19150820,.00017551,97.4456,189.0787,96.3101,263.8334,0,U,36605,999,88867,.23207727E-4,.42E-5,0
CARTOSAT-2B,2010-035A,2026-07-01T05:05:14.822304,14.78599688,.0011947,97.9948,232.6722,139.6801,220.5298,0,U,36795,999,86192,.23624E-4,.121E-5,0
YAOGAN-10,2010-038A,2026-07-01T05:36:34.771392,14.85390209,.0001666,97.8967,205.5257,86.7229,3.6322,0,U,36834,999,85929,.19869E-3,.1657E-4,0
COSMO-SKYMED 4,2010-060A,2026-07-01T05:10:53.753088,14.82157471,.0001479,97.8882,5.6120,84.3314,275.8068,0,U,37216,999,84664,.876E-4,.645E-5,0
RESOURCESAT-2,2011-015A,2026-07-01T03:58:26.436000,14.21603286,.0010759,98.7639,249.5105,211.7479,148.3051,0,U,37387,999,78816,.71166E-4,.112E-5,0
HAIYANG-2A,2011-043A,2026-07-01T05:39:57.507264,13.73990636,.0004766,99.3389,184.5964,61.6169,298.5460,0,U,37781,999,74858,.1449E-3,.93E-6,0
RASAT,2011-044D,2026-07-01T03:42:44.697600,14.68178320,.0021287,98.0587,273.3381,144.8913,307.8081,0,U,37791,999,79523,.28657E-4,.116E-5,0
SRMSAT,2011-058D,2026-07-01T02:16:18.558336,14.11578458,.00118,19.9733,335.2931,357.4483,159.7900,0,U,37841,999,75978,.64337E-4,.383E-5,0
PLEIADES 1A,2011-076F,2026-07-01T04:38:38.632416,14.58538468,.0001762,98.1980,257.1079,87.2444,357.6536,0,U,38012,999,77403,.17841E-4,.37E-6,0
ZIYUAN 1-02C (ZY 1-02C),2011-079A,2026-07-01T04:54:23.804352,14.38224942,.0005129,98.4072,249.2197,265.3599,187.7517,0,U,38038,999,76122,.61912E-4,.145E-5,0
ARIRANG-3 (KOMPSAT-3),2012-025B,2026-07-01T03:06:16.400736,14.62218485,.0006772,98.1177,139.3491,74.5751,285.6198,0,U,38338,999,75338,.10283E-3,.472E-5,0
EXACTVIEW-1 (ADS-1B),2012-039C,2026-07-01T01:45:31.615776,14.24988712,.0011745,98.9794,299.7781,128.6193,231.6038,0,U,38709,999,72468,.73517E-4,.126E-5,0
SPOT 6,2012-047A,2026-07-01T04:37:24.680928,14.58530237,.0001228,98.2119,249.3374,76.3148,283.8188,0,U,38755,999,73509,.38446E-4,.133E-5,0
PLEIADES 1B,2012-068A,2026-07-01T03:25:37.216704,14.58568352,.0001689,98.1950,257.0021,84.7445,275.3947,0,U,39019,999,72288,.42113E-4,.15E-5,0
GOKTURK 2,2012-073A,2026-07-01T04:27:36.631296,14.75556980,.0001084,97.6809,18.9150,60.5122,299.6196,0,U,39030,999,72657,.10062E-3,.638E-5,0
LANDSAT 8,2013-008A,2026-07-01T04:05:55.391136,14.57103921,.0001347,98.2298,252.1397,93.4482,266.6871,0,U,39084,999,69993,.91739E-4,.368E-5,0
SARAL,2013-009A,2026-07-01T03:31:14.569824,14.32859340,.0000939,98.5557,8.5370,206.6835,153.4300,0,U,39086,999,69760,.48861E-4,.9E-6,0
GAOFEN-1,2013-018A,2026-07-01T05:25:55.265376,14.76503876,.0015966,97.9097,254.0089,217.4347,142.5752,0,U,39150,999,71031,.74718E-4,.47E-5,0
VNREDSAT 1,2013-021B,2026-07-01T03:50:42.150912,14.64869869,.0001693,97.9075,235.0397,81.7698,278.3697,0,U,39160,999,70233,.47933E-4,.211E-5,0
ARIRANG-5 (KOMPSAT-5),2013-042A,2026-07-01T04:47:10.607712,15.04535211,.0005088,97.6193,8.7013,88.8330,271.3479,0,U,39227,999,70596,.13839E-3,.1879E-4,0
SKYSAT-A,2013-066C,2026-07-01T03:29:54.292128,15.13050034,.0019715,97.3806,231.0983,265.2646,94.6334,0,U,39418,999,69059,.21227E-3,.3705E-4,0
DUBAISAT-2,2013-066D,2026-07-01T04:24:16.198848,15.10284388,.0010756,97.4565,171.9620,354.6663,5.4450,0,U,39419,999,68850,.27898E-3,.4511E-4,0
GPM-CORE,2014-009C,2026-07-01T03:05:41.623008,15.44860348,.0011308,64.9715,261.4254,257.1533,102.8345,0,U,39574,999,69996,.26784E-3,.12434E-3,0
SENTINEL-1A,2014-016A,2026-07-01T03:36:29.467584,14.59200283,.000138,98.1773,189.4791,85.0840,275.0517,0,U,39634,999,65205,.66594E-4,.268E-5,0
KAZEOSAT 1,2014-024A,2026-07-01T04:13:37.839360,14.42084653,.0001159,98.3209,254.2753,78.4024,281.7295,0,U,39731,999,64057,-.50295E-5,-.59E-6,0
ALOS-2,2014-029A,2026-06-30T20:50:50.445024,14.79474729,.0001598,97.9232,278.8362,87.5110,272.6284,0,U,39766,999,65360,.10488E-3,.732E-5,0
KAZEOSAT 2,2014-033A,2026-07-01T04:09:55.259136,14.85485218,.000704,97.5393,21.0460,275.8343,84.2070,0,U,40010,999,65103,.85639E-4,.689E-5,0
