OCEANSAT-2              
1 35931U 09051A   26182.21079336 -.00000225  00000+0 -12808-3 0  9998
2 35931  98.2318 167.6626 0016354 194.2637 165.8070 13.99659748881295
WORLDVIEW-2 (WV-2)      
1 35946U 09055A   26182.15057976  .00000153  00000+0  65220-4 0  9992
2 35946  98.4763 255.4091 0004596 165.6094 194.5224 14.37903507877656
SMOS                    
1 36036U 09059A   26182.08861723  .00000284  00000+0  10457-3 0  9998
2 36036  98.4425   9.2199 0001313  87.7025 272.4313 14.39780211875456
YAOGAN-7                
1 36110U 09069A   26182.10250313  .00000561  00000+0  84731-4 0  9997
2 36110  98.0054  67.8826 0024566 357.8391   2.2709 14.78023940891685
TANDEM-X                
1 36605U 10030A   26181.56298572  .00000420  00000+0  23208-4 0  9990
2 36605  97.4456 189.0787 0001755  96.3101 263.8334 15.19150820888673
CARTOSAT-2B             
1 36795U 10035A   26182.21197711  .00000121  00000+0  23624-4 0  9991
2 36795  97.9948 232.6722 0011947 139.6801 220.5298 14.78599688861921
YAOGAN-10               
1 36834U 10038A   26182.23373578  .00001657  00000+0  19869-3 0  9997
2 36834  97.8967 205.5257 0001666  86.7229   3.6322 14.85390209859291
COSMO-SKYMED 4          
1 37216U 10060A   26182.21589992  .00000645  00000+0  87600-4 0  9999
2 37216  97.8882   5.6120 0001479  84.3314 275.8068 14.82157471846645
RESOURCESAT-2           
1 37387U 11015A   26182.16558375  .00000112  00000+0  71166-4 0  9993
2 37387  98.7639 249.5105 0010759 211.7479 148.3051 14.21603286788166
HAIYANG-2A              
1 37781U 11043A   26182.23608226  .00000093  00000+0  14490-3 0  9995
2 37781  99.3389 184.5964 0004766  61.6169 298.5460 13.73990636748581
RASAT                   
1 37791U 11044D   26182.15468400  .00000116  00000+0  28657-4 0  9993
2 37791  98.0587 273.3381 0021287 144.8913 307.8081 14.68178320795236
SRMSAT                  
1 37841U 11058D   26182.09465924  .00000383  00000+0  64337-4 0  9996
2 37841  19.9733 335.2931 0011800 357.4483 159.7900 14.11578458759788
PLEIADES 1A             
1 38012U 11076F   26182.19350269  .00000037  00000+0  17841-4 0  9997
2 38012  98.1980 257.1079 0001762  87.2444 357.6536 14.58538468774035
ZIYUAN 1-02C (ZY 1-02C) 
1 38038U 11079A   26182.20444218  .00000145  00000+0  61912-4 0  9996
2 38038  98.4072 249.2197 0005129 265.3599 187.7517 14.38224942761227
ARIRANG-3 (KOMPSAT-3)   
1 38338U 12025B   26182.12935649  .00000472  00000+0  10283-3 0  9992
2 38338  98.1177 139.3491 0006772  74.5751 285.6198 14.62218485753387
EXACTVIEW-1 (ADS-1B)    
1 38709U 12039C   26182.07328259  .00000126  00000+0  73517-4 0  9992
2 38709  98.9794 299.7781 0011745 128.6193 231.6038 14.24988712724682
SPOT 6                  
1 38755U 12047A   26182.19264677  .00000133  00000+0  38446-4 0  9998
2 38755  98.2119 249.3374 0001228  76.3148 283.8188 14.58530237735094
PLEIADES 1B             
1 39019U 12068A   26182.14279186  .00000150  00000+0  42113-4 0  9996
2 39019  98.1950 257.0021 0001689  84.7445 275.3947 14.58568352722880
GOKTURK 2               
1 39030U 12073A   26182.18584064  .00000638  00000+0  10062-3 0  9991
2 39030  97.6809  18.9150 0001084  60.5122 299.6196 14.75556980726578
LANDSAT 8               
1 39084U 13008A   26182.17077999  .00000368  00000+0  91739-4 0  9993
2 39084  98.2298 252.1397 0001347  93.4482 266.6871 14.57103921699933
SARAL                   
1 39086U 13009A   26182.14669641  .00000090  00000+0  48861-4 0  9994
2 39086  98.5557   8.5370 0000939 206.6835 153.4300 14.32859340697604
GAOFEN-1                
1 39150U 13018A   26182.22633409  .00000470  00000+0  74718-4 0  9990
2 39150  97.9097 254.0089 0015966 217.4347 142.5752 14.76503876710319
VNREDSAT 1              
1 39160U 13021B   26182.16021008  .00000211  00000+0  47933-4 0  9996
2 39160  97.9075 235.0397 0001693  81.7698 278.3697 14.64869869702333
ARIRANG-5 (KOMPSAT-5)   
1 39227U 13042A   26182.19942833  .00001879  00000+0  13839-3 0  9992
2 39227  97.6193   8.7013 0005088  88.8330 271.3479 15.04535211705967
SKYSAT-A                
1 39418U 13066C   26182.14576727  .00003705  00000+0  21227-3 0  9990
2 39418  97.3806 231.0983 0019715 265.2646  94.6334 15.13050034690590
DUBAISAT-2              
1 39419U 13066D   26182.18352082  .00004511  00000+0  27898-3 0  9997
2 39419  97.4565 171.9620 0010756 354.6663   5.4450 15.10284388688507
GPM-CORE                
1 39574U 14009C   26182.12895397  .00012434  00000+0  26784-3 0  9998
2 39574  64.9715 261.4254 0011308 257.1533 102.8345 15.44860348699960
SENTINEL-1A             
1 39634U 14016A   26182.15034106  .00000268  00000+0  66594-4 0  9995
2 39634  98.1773 189.4791 0001380  85.0840 275.0517 14.59200283652057
KAZEOSAT 1              
1 39731U 14024A   26182.17613240 -.00000059  00000+0 -50295-5 0  9998
2 39731  98.3209 254.2753 0001159  78.4024 281.7295 14.42084653640578
ALOS-2                  
1 39766U 14029A   26181.86863941  .00000732  00000+0  10488-3 0  9995
2 39766  97.9232 278.8362 0001598  87.5110 272.6284 14.79474729653601
KAZEOSAT 2              
1 40010U 14033A   26182.17355624  .00000689  00000+0  85639-4 0  9995
2 40010  97.5393  21.0460 0007040 275.8343  84.2070 14.85485218651031
